[{"OBJECT_NAME":"HELIOS 1B","OBJECT_ID":"1999-064A","EPOCH":"2026-04-27T06:31:18.799104","MEAN_MOTION":14.87866555,"ECCENTRICITY":3.756e-5,"INCLINATION":98.165,"RA_OF_ASC_NODE":20.934,"ARG_OF_PERICENTER":93.291,"MEAN_ANOMALY":266.8348,"EPHEMERIS_TYPE":0,"CLASSIFICATION_TYPE":"U","NORAD_CAT_ID":25977,"ELEMENT_SET_NO":999,"REV_AT_EPOCH":69248,"BSTAR":0.00018503961,"MEAN_MOTION_DOT":1.634e-5,"MEAN_MOTION_DDOT":0},{"OBJECT_NAME":"TERRA","OBJECT_ID":"1999-068A","EPOCH":"2026-04-27T06:31:39.515232","MEAN_MOTION":14.61061586,"ECCENTRICITY":0.00031399,"INCLINATION":97.9501,"RA_OF_ASC_NODE":168.8266,"ARG_OF_PERICENTER":53.9282,"MEAN_ANOMALY":10.619,"EPHEMERIS_TYPE":0,"CLASSIFICATION_TYPE":"U","NORAD_CAT_ID":25994,"ELEMENT_SET_NO":999,"REV_AT_EPOCH":40217,"BSTAR":9.6778964e-5,"MEAN_MOTION_DOT":4.31e-6,"MEAN_MOTION_DDOT":0},{"OBJECT_NAME":"SL-16 R/B","OBJECT_ID":"2000-006B","EPOCH":"2026-04-27T01:19:37.860384","MEAN_MOTION":14.15831331,"ECCENTRICITY":0.00145805,"INCLINATION":71.0043,"RA_OF_ASC_NODE":356.1408,"ARG_OF_PERICENTER":110.8087,"MEAN_ANOMALY":249.4599,"EPHEMERIS_TYPE":0,"CLASSIFICATION_TYPE":"U","NORAD_CAT_ID":26070,"ELEMENT_SET_NO":999,"REV_AT_EPOCH":35540,"BSTAR":0.00017634918,"MEAN_MOTION_DOT":3.0e-6,"MEAN_MOTION_DDOT":0},{"OBJECT_NAME":"TITAN 4B R/B","OBJECT_ID":"2000-047B","EPOCH":"2026-04-27T06:09:59.029344","MEAN_MOTION":15.09923054,"ECCENTRICITY":0.00426503,"INCLINATION":67.9883,"RA_OF_ASC_NODE":263.8968,"ARG_OF_PERICENTER":340.1712,"MEAN_ANOMALY":19.7777,"EPHEMERIS_TYPE":0,"CLASSIFICATION_TYPE":"U","NORAD_CAT_ID":26474,"ELEMENT_SET_NO":999,"REV_AT_EPOCH":40024,"BSTAR":0.0002218563,"MEAN_MOTION_DOT":3.545e-5,"MEAN_MOTION_DDOT":0},{"OBJECT_NAME":"ENVISAT","OBJECT_ID":"2002-009A","EPOCH":"2026-04-27T07:18:33.666048","MEAN_MOTION":14.39052258,"ECCENTRICITY":0.00011442,"INCLINATION":98.38,"RA_OF_ASC_NODE":69.7689,"ARG_OF_PERICENTER":87.167,"MEAN_ANOMALY":82.6567,"EPHEMERIS_TYPE":0,"CLASSIFICATION_TYPE":"U","NORAD_CAT_ID":27386,"ELEMENT_SET_NO":999,"REV_AT_EPOCH":26616,"BSTAR":4.5913153e-5,"MEAN_MOTION_DOT":9.9e-7,"MEAN_MOTION_DDOT":0},{"OBJECT_NAME":"IDEFIX & ARIANE 42P R/B","OBJECT_ID":"2002-021B","EPOCH":"2026-04-27T07:11:08.244672","MEAN_MOTION":14.31056483,"ECCENTRICITY":0.00127677,"INCLINATION":98.5921,"RA_OF_ASC_NODE":55.3418,"ARG_OF_PERICENTER":48.1145,"MEAN_ANOMALY":312.1126,"EPHEMERIS_TYPE":0,"CLASSIFICATION_TYPE":"U","NORAD_CAT_ID":27422,"ELEMENT_SET_NO":999,"REV_AT_EPOCH":25097,"BSTAR":0.00011343108,"MEAN_MOTION_DOT":2.55e-6,"MEAN_MOTION_DDOT":0},{"OBJECT_NAME":"AQUA","OBJECT_ID":"2002-022A","EPOCH":"2026-04-27T06:49:14.752992","MEAN_MOTION":14.62076657,"ECCENTRICITY":0.00020497,"INCLINATION":98.4245,"RA_OF_ASC_NODE":85.5642,"ARG_OF_PERICENTER":94.5121,"MEAN_ANOMALY":10.6715,"EPHEMERIS_TYPE":0,"CLASSIFICATION_TYPE":"U","NORAD_CAT_ID":27424,"ELEMENT_SET_NO":999,"REV_AT_EPOCH":27583,"BSTAR":0.00019381396,"MEAN_MOTION_DOT":9.24e-6,"MEAN_MOTION_DDOT":0},{"OBJECT_NAME":"CZ-4B R/B","OBJECT_ID":"2002-024C","EPOCH":"2026-04-27T02:12:57.103776","MEAN_MOTION":14.14555923,"ECCENTRICITY":0.00491813,"INCLINATION":98.8743,"RA_OF_ASC_NODE":170.2323,"ARG_OF_PERICENTER":244.9461,"MEAN_ANOMALY":134.5615,"EPHEMERIS_TYPE":0,"CLASSIFICATION_TYPE":"U","NORAD_CAT_ID":27432,"ELEMENT_SET_NO":999,"REV_AT_EPOCH":23608,"BSTAR":4.250223e-5,"MEAN_MOTION_DOT":3.8e-7,"MEAN_MOTION_DDOT":0},{"OBJECT_NAME":"MIDORI II (ADEOS-II)","OBJECT_ID":"2002-056A","EPOCH":"2026-04-27T04:13:58.059552","MEAN_MOTION":14.29319446,"ECCENTRICITY":8.847e-5,"INCLINATION":98.7842,"RA_OF_ASC_NODE":76.0148,"ARG_OF_PERICENTER":142.7366,"MEAN_ANOMALY":217.3877,"EPHEMERIS_TYPE":0,"CLASSIFICATION_TYPE":"U","NORAD_CAT_ID":27597,"ELEMENT_SET_NO":999,"REV_AT_EPOCH":21722,"BSTAR":0.00013494878,"MEAN_MOTION_DOT":2.98e-6,"MEAN_MOTION_DDOT":0},{"OBJECT_NAME":"H-2A R/B","OBJECT_ID":"2002-056E","EPOCH":"2026-04-27T03:05:56.361120","MEAN_MOTION":14.33794123,"ECCENTRICITY":0.00706736,"INCLINATION":98.3277,"RA_OF_ASC_NODE":75.676,"ARG_OF_PERICENTER":18.3184,"MEAN_ANOMALY":352.4814,"EPHEMERIS_TYPE":0,"CLASSIFICATION_TYPE":"U","NORAD_CAT_ID":27601,"ELEMENT_SET_NO":999,"REV_AT_EPOCH":22105,"BSTAR":0.00013047532,"MEAN_MOTION_DOT":3.31e-6,"MEAN_MOTION_DDOT":0},{"OBJECT_NAME":"CZ-4B R/B","OBJECT_ID":"2003-049C","EPOCH":"2026-04-27T06:38:32.292096","MEAN_MOTION":14.55061421,"ECCENTRICITY":0.00493435,"INCLINATION":98.69,"RA_OF_ASC_NODE":114.1008,"ARG_OF_PERICENTER":83.6183,"MEAN_ANOMALY":277.0629,"EPHEMERIS_TYPE":0,"CLASSIFICATION_TYPE":"U","NORAD_CAT_ID":28059,"ELEMENT_SET_NO":999,"REV_AT_EPOCH":19366,"BSTAR":0.00011340577,"MEAN_MOTION_DOT":4.46e-6,"MEAN_MOTION_DDOT":0},{"OBJECT_NAME":"CZ-2C R/B","OBJECT_ID":"2004-012C","EPOCH":"2026-04-27T04:31:39.900000","MEAN_MOTION":15.70576585,"ECCENTRICITY":0.00135473,"INCLINATION":97.7137,"RA_OF_ASC_NODE":187.2795,"ARG_OF_PERICENTER":131.8786,"MEAN_ANOMALY":228.3634,"EPHEMERIS_TYPE":0,"CLASSIFICATION_TYPE":"U","NORAD_CAT_ID":28222,"ELEMENT_SET_NO":999,"REV_AT_EPOCH":21187,"BSTAR":0.00068552817,"MEAN_MOTION_DOT":0.00085258,"MEAN_MOTION_DDOT":0},{"OBJECT_NAME":"SL-16 R/B","OBJECT_ID":"2004-021B","EPOCH":"2026-04-27T07:39:48.483360","MEAN_MOTION":14.14603919,"ECCENTRICITY":0.00068842,"INCLINATION":70.9983,"RA_OF_ASC_NODE":130.4426,"ARG_OF_PERICENTER":307.7793,"MEAN_ANOMALY":52.2705,"EPHEMERIS_TYPE":0,"CLASSIFICATION_TYPE":"U","NORAD_CAT_ID":28353,"ELEMENT_SET_NO":999,"REV_AT_EPOCH":12971,"BSTAR":-7.9965204e-5,"MEAN_MOTION_DOT":-2.01e-6,"MEAN_MOTION_DDOT":0},{"OBJECT_NAME":"CZ-4B R/B","OBJECT_ID":"2004-035C","EPOCH":"2026-04-27T01:28:13.187136","MEAN_MOTION":15.29835339,"ECCENTRICITY":0.00324475,"INCLINATION":97.3422,"RA_OF_ASC_NODE":150.7301,"ARG_OF_PERICENTER":154.1197,"MEAN_ANOMALY":206.1676,"EPHEMERIS_TYPE":0,"CLASSIFICATION_TYPE":"U","NORAD_CAT_ID":28415,"ELEMENT_SET_NO":999,"REV_AT_EPOCH":18730,"BSTAR":0.00027615126,"MEAN_MOTION_DOT":8.03e-5,"MEAN_MOTION_DDOT":0},{"OBJECT_NAME":"CZ-2C R/B","OBJECT_ID":"2004-046B","EPOCH":"2026-04-27T06:53:33.791424","MEAN_MOTION":14.27011079,"ECCENTRICITY":0.01397325,"INCLINATION":98.1969,"RA_OF_ASC_NODE":29.2416,"ARG_OF_PERICENTER":11.6893,"MEAN_ANOMALY":348.7477,"EPHEMERIS_TYPE":0,"CLASSIFICATION_TYPE":"U","NORAD_CAT_ID":28480,"ELEMENT_SET_NO":999,"REV_AT_EPOCH":11543,"BSTAR":8.2921836e-5,"MEAN_MOTION_DOT":1.82e-6,"MEAN_MOTION_DDOT":0},{"OBJECT_NAME":"ARIANE 5 R/B","OBJECT_ID":"2004-049H","EPOCH":"2026-04-27T04:53:51.544320","MEAN_MOTION":14.85357499,"ECCENTRICITY":0.00837614,"INCLINATION":98.2689,"RA_OF_ASC_NODE":287.4996,"ARG_OF_PERICENTER":193.0006,"MEAN_ANOMALY":166.905,"EPHEMERIS_TYPE":0,"CLASSIFICATION_TYPE":"U","NORAD_CAT_ID":28499,"ELEMENT_SET_NO":999,"REV_AT_EPOCH":15299,"BSTAR":0.00013203192,"MEAN_MOTION_DOT":1.144e-5,"MEAN_MOTION_DDOT":0},{"OBJECT_NAME":"CZ-2D R/B","OBJECT_ID":"2005-024B","EPOCH":"2026-04-27T07:41:30.278112","MEAN_MOTION":15.64519774,"ECCENTRICITY":0.00049884,"INCLINATION":97.3539,"RA_OF_ASC_NODE":134.4056,"ARG_OF_PERICENTER":166.4255,"MEAN_ANOMALY":193.7139,"EPHEMERIS_TYPE":0,"CLASSIFICATION_TYPE":"U","NORAD_CAT_ID":28738,"ELEMENT_SET_NO":999,"REV_AT_EPOCH":14737,"BSTAR":0.00057183177,"MEAN_MOTION_DOT":0.00055198,"MEAN_MOTION_DDOT":0}]
