HELIOS 1B               
1 25977U 99064A   26117.27174536  .00001634  00000+0  18504-3 0  9994
2 25977  98.1650  20.9340 0000375  93.2910 266.8348 14.87866555692489
TERRA                   
1 25994U 99068A   26117.27198513  .00000431  00000+0  96779-4 0  9993
2 25994  97.9501 168.8266 0003139  53.9282  10.6190 14.61061586402173
SL-16 R/B               
1 26070U 00006B   26117.05529931  .00000300  00000+0  17635-3 0  9999
2 26070  71.0043 356.1408 0014580 110.8087 249.4599 14.15831331355401
TITAN 4B R/B            
1 26474U 00047B   26117.25693321  .00003545  00000+0  22186-3 0  9990
2 26474  67.9883 263.8968 0042650 340.1712  19.7777 15.09923054400249
ENVISAT                 
1 27386U 02009A   26117.30455632  .00000099  00000+0  45913-4 0  9995
2 27386  98.3800  69.7689 0001144  87.1670  82.6567 14.39052258266164
IDEFIX & ARIANE 42P R/B 
1 27422U 02021B   26117.29940098  .00000255  00000+0  11343-3 0  9996
2 27422  98.5921  55.3418 0012767  48.1145 312.1126 14.31056483250979
AQUA                    
1 27424U 02022A   26117.28419853  .00000924  00000+0  19381-3 0  9991
2 27424  98.4245  85.5642 0002049  94.5121  10.6715 14.62076657275839
CZ-4B R/B               
1 27432U 02024C   26117.09232759  .00000038  00000+0  42502-4 0  9997
2 27432  98.8743 170.2323 0049181 244.9461 134.5615 14.14555923236083
MIDORI II (ADEOS-II)    
1 27597U 02056A   26117.17636643  .00000298  00000+0  13495-3 0  9999
2 27597  98.7842  76.0148 0000884 142.7366 217.3877 14.29319446217227
H-2A R/B                
1 27601U 02056E   26117.12912455  .00000331  00000+0  13048-3 0  9990
2 27601  98.3277  75.6760 0070673  18.3184 352.4814 14.33794123221057
CZ-4B R/B               
1 28059U 03049C   26117.27676264  .00000446  00000+0  11341-3 0  9993
2 28059  98.6900 114.1008 0049343  83.6183 277.0629 14.55061421193662
CZ-2C R/B               
1 28222U 04012C   26117.18865625  .00085258  00000+0  68553-3 0  9998
2 28222  97.7137 187.2795 0013547 131.8786 228.3634 15.70576585211871
SL-16 R/B               
1 28353U 04021B   26117.31931115 -.00000201  00000+0 -79965-4 0  9993
2 28353  70.9983 130.4426 0006884 307.7793  52.2705 14.14603919129710
CZ-4B R/B               
1 28415U 04035C   26117.06126374  .00008030  00000+0  27615-3 0  9992
2 28415  97.3422 150.7301 0032447 154.1197 206.1676 15.29835339187309
CZ-2C R/B               
1 28480U 04046B   26117.28719666  .00000182  00000+0  82922-4 0  9995
2 28480  98.1969  29.2416 0139732  11.6893 348.7477 14.27011079115439
ARIANE 5 R/B            
1 28499U 04049H   26117.20406880  .00001144  00000+0  13203-3 0  9995
2 28499  98.2689 287.4996 0083761 193.0006 166.9050 14.85357499152993
CZ-2D R/B               
1 28738U 05024B   26117.32048933  .00055198  00000+0  57183-3 0  9992
2 28738  97.3539 134.4056 0004988 166.4255 193.7139 15.64519774147371
